[{"OBJECT_NAME":"STARLINK-32899","OBJECT_ID":"2025-031P","EPOCH":"2026-03-09T04:26:53.229120","MEAN_MOTION":15.27602946,"ECCENTRICITY":0.00037423,"INCLINATION":42.9974,"RA_OF_ASC_NODE":146.5747,"ARG_OF_PERICENTER":291.0708,"MEAN_ANOMALY":68.9743,"EPHEMERIS_TYPE":0,"CLASSIFICATION_TYPE":"U","NORAD_CAT_ID":62994,"ELEMENT_SET_NO":999,"REV_AT_EPOCH":6101,"BSTAR":0.0010440031,"MEAN_MOTION_DOT":0.00028602,"MEAN_MOTION_DDOT":0},{"OBJECT_NAME":"ATLAS F DEB","OBJECT_ID":"1978-047C","EPOCH":"2026-03-09T21:11:22.529760","MEAN_MOTION":12.47735571,"ECCENTRICITY":0.12806369,"INCLINATION":63.6672,"RA_OF_ASC_NODE":306.5337,"ARG_OF_PERICENTER":6.5078,"MEAN_ANOMALY":63.9186,"EPHEMERIS_TYPE":0,"CLASSIFICATION_TYPE":"U","NORAD_CAT_ID":29197,"ELEMENT_SET_NO":999,"REV_AT_EPOCH":74601,"BSTAR":0.094503922,"MEAN_MOTION_DOT":0.00406138,"MEAN_MOTION_DDOT":0}]
